{
"type": "FeatureCollection",
"name": "dublin_luas_stops",
"crs": { "type": "name", "properties": { "name": "urn:ogc:def:crs:OGC:1.3:CRS84" } },
"features": [
{ "type": "Feature", "properties": { "element": "node", "id": 51452792, "name": "Balally", "name:en": "Balally", "name:ga": "Baile Amhlaoibh", "note": "Wheelchair access via lift from Overend Avenue. Wheelchair access via ramp from park and ride. Unknown wheelchair access from Rockfield Central. No wheelchair access from Rockfield.", "public_transport": "stop_position", "railway": "tram_stop", "tram": "yes", "website": "https://www.luas.ie/stops/balally/", "wheelchair": "limited", "operator": null, "line": null, "network": null, "shelter": null, "shelter_type": null, "bin": null, "lit": null }, "geometry": { "type": "Point", "coordinates": [ -6.2366851, 53.2860711 ] } },
{ "type": "Feature", "properties": { "element": "node", "id": 51452839, "name": "Stillorgan", "name:en": "Stillorgan", "name:ga": "Stigh Lorgan", "note": null, "public_transport": "stop_position", "railway": "tram_stop", "tram": "yes", "website": "https://www.luas.ie/stops/stillorgan/", "wheelchair": "yes", "operator": "Luas - Transdev Dublin Light Rail Limited", "line": null, "network": null, "shelter": null, "shelter_type": null, "bin": null, "lit": null }, "geometry": { "type": "Point", "coordinates": [ -6.2101512, 53.2794095 ] } },
{ "type": "Feature", "properties": { "element": "node", "id": 60939192, "name": "Kilmacud", "name:en": "Kilmacud", "name:ga": "Cill Mochuda", "note": "Wheelchair access from Benildus Avenue and Drummartin Link Road via lifts.", "public_transport": "stop_position", "railway": "tram_stop", "tram": "yes", "website": "https://www.luas.ie/stops/kilmacud/", "wheelchair": "yes", "operator": "Luas - Transdev Dublin Light Rail Limited", "line": null, "network": null, "shelter": null, "shelter_type": null, "bin": null, "lit": null }, "geometry": { "type": "Point", "coordinates": [ -6.2239109, 53.2830252 ] } },
{ "type": "Feature", "properties": { "element": "node", "id": 250292908, "name": "Glencairn", "name:en": "Glencairn", "name:ga": "Ghleann an Chairn", "note": null, "public_transport": "stop_position", "railway": "tram_stop", "tram": "yes", "website": "https://www.luas.ie/stops/glencairn/", "wheelchair": "yes", "operator": "Luas - Transdev Dublin Light Rail Limited", "line": "Luas Green Line", "network": "Luas Green Line", "shelter": null, "shelter_type": null, "bin": null, "lit": null }, "geometry": { "type": "Point", "coordinates": [ -6.2099918, 53.2662801 ] } },
{ "type": "Feature", "properties": { "element": "node", "id": 250292914, "name": "The Gallops", "name:en": "The Gallops", "name:ga": "An Eachrais", "note": null, "public_transport": "stop_position", "railway": "tram_stop", "tram": "yes", "website": "https://www.luas.ie/stops/the-gallops/", "wheelchair": "yes", "operator": "Luas - Transdev Dublin Light Rail Limited", "line": "Luas Green Line", "network": "Luas Green Line", "shelter": null, "shelter_type": null, "bin": null, "lit": null }, "geometry": { "type": "Point", "coordinates": [ -6.2059259, 53.2611506 ] } },
{ "type": "Feature", "properties": { "element": "node", "id": 702028282, "name": "Ballyogan Wood", "name:en": "Ballyogan Wood", "name:ga": "Coill Bhaile Uí Ógáin", "note": null, "public_transport": "stop_position", "railway": "tram_stop", "tram": "yes", "website": "https://www.luas.ie/stops/ballyogan-wood/", "wheelchair": "yes", "operator": "Luas - Transdev Dublin Light Rail Limited", "line": "Luas Green Line", "network": null, "shelter": null, "shelter_type": null, "bin": null, "lit": null }, "geometry": { "type": "Point", "coordinates": [ -6.1844188, 53.2550428 ] } },
{ "type": "Feature", "properties": { "element": "node", "id": 954731669, "name": "Leopardstown Valley", "name:en": null, "name:ga": "Gleann Bhaile na Lobhar", "note": null, "public_transport": "stop_position", "railway": "tram_stop", "tram": "yes", "website": "https://www.luas.ie/stops/leopardstown-valley/", "wheelchair": "yes", "operator": "Luas - Transdev Dublin Light Rail Limited", "line": "Luas Green Line", "network": "Luas Green Line", "shelter": null, "shelter_type": null, "bin": null, "lit": null }, "geometry": { "type": "Point", "coordinates": [ -6.1983689, 53.2582808 ] } },
{ "type": "Feature", "properties": { "element": "node", "id": 954886380, "name": "Central Park", "name:en": "Central Park", "name:ga": "An Pháirc Láir", "note": null, "public_transport": "stop_position", "railway": "tram_stop", "tram": "yes", "website": "https://www.luas.ie/stops/central-park/", "wheelchair": "yes", "operator": "Luas - Transdev Dublin Light Rail Limited", "line": "Luas Green Line", "network": null, "shelter": null, "shelter_type": null, "bin": null, "lit": null }, "geometry": { "type": "Point", "coordinates": [ -6.203825, 53.2700995 ] } },
{ "type": "Feature", "properties": { "element": "node", "id": 1221182127, "name": "Dundrum", "name:en": "Dundrum", "name:ga": "Dún Droma", "note": "Wheelchair access via lift at Main Street, adjacent to main bridge. Wheelchair access via ramps at Taney Drive. No wheelchair access at Usher House / Dundrum Office Park", "public_transport": "stop_position", "railway": "tram_stop", "tram": "yes", "website": "https://www.luas.ie/stops/dundrum/", "wheelchair": "limited", "operator": "Luas - Transdev Dublin Light Rail Limited", "line": null, "network": null, "shelter": null, "shelter_type": null, "bin": null, "lit": null }, "geometry": { "type": "Point", "coordinates": [ -6.2451106, 53.2923978 ] } },
{ "type": "Feature", "properties": { "element": "node", "id": 2368752999, "name": "Sandyford", "name:en": "Sandyford", "name:ga": "Áth An Ghainimh", "note": null, "public_transport": "stop_position", "railway": "tram_stop", "tram": "yes", "website": "https://luas.ie/sandyford.html", "wheelchair": null, "operator": "Luas - Transdev Dublin Light Rail Limited", "line": "Luas Green Line", "network": null, "shelter": "yes", "shelter_type": "public_transport", "bin": null, "lit": null }, "geometry": { "type": "Point", "coordinates": [ -6.2049694, 53.2776274 ] } }
]
}
