{
"type": "FeatureCollection",
"name": "isochrone_cycle_1500m",
"crs": { "type": "name", "properties": { "name": "urn:ogc:def:crs:EPSG::2157" } },
"features": [
{ "type": "Feature", "properties": { }, "geometry": { "type": "Polygon", "coordinates": [ [ [ 718236.011434263316914, 724711.718758752453141 ], [ 717952.570225377916358, 725170.12383801524993 ], [ 718149.594892687047832, 726003.356379186268896 ], [ 718160.692739187856205, 726032.17508932761848 ], [ 718455.611125263618305, 726181.17617134610191 ], [ 718354.641607726225629, 726255.417134045623243 ], [ 718268.760165967862122, 726319.994261535000987 ], [ 718173.665249343845062, 726198.559616356040351 ], [ 718155.745376185397618, 726177.375591557705775 ], [ 718148.615766516886652, 726176.130146450246684 ], [ 717131.791030579246581, 726378.824986431282014 ], [ 716701.88915851386264, 726519.901724433293566 ], [ 716698.320343148196116, 726524.48991991719231 ], [ 716294.723385262768716, 727117.205326105933636 ], [ 716294.361432204023004, 727132.035867078811862 ], [ 716344.47611458459869, 727466.545068879146129 ], [ 716109.641855068621226, 727620.580875539802946 ], [ 715679.849949070718139, 728254.539806559798308 ], [ 715678.062324173050001, 728257.836077190120704 ], [ 715617.79590457805898, 728806.029243076569401 ], [ 716314.17511082906276, 729369.818710996187292 ], [ 716909.075740935164504, 729806.651770426076837 ], [ 717685.444027758087032, 729262.520757638034411 ], [ 717765.836944034090266, 729182.228152819094248 ], [ 718327.901853174669668, 728457.251513593248092 ], [ 718331.291903895442374, 728444.299553021322936 ], [ 718309.357655422645621, 728345.648320784326643 ], [ 718320.216647348948754, 728321.984089329489507 ], [ 718865.504974947427399, 728983.181477145524696 ], [ 719116.651234527118504, 729248.189707415411249 ], [ 719122.84086159162689, 729251.361484140041284 ], [ 719432.037327068392187, 729166.716876024263911 ], [ 719672.596602924051695, 729043.105513911461458 ], [ 719729.992827127571218, 729011.584450587397441 ], [ 720578.101932341465726, 728503.54409719852265 ], [ 720805.781223716214299, 728300.964169128565118 ], [ 720860.96297939796932, 728175.985077337012626 ], [ 720512.489608353469521, 727226.509377383161336 ], [ 720439.905155354295857, 727178.311850410653278 ], [ 720545.296811921987683, 726410.845445983461104 ], [ 720517.789838582277298, 726374.425052146078087 ], [ 720133.26689286576584, 726010.499229368986562 ], [ 719912.004920802195556, 725950.002340949024074 ], [ 720296.079295858740807, 725128.624904707772657 ], [ 720329.300022430019453, 725012.002691190107726 ], [ 720368.885493400623091, 724531.660047880141065 ], [ 720366.39986337441951, 724523.5484210527502 ], [ 720103.076940188882872, 724309.943499936140142 ], [ 720094.18147698440589, 724303.429584436584264 ], [ 719155.729787498828955, 723983.087920867372304 ], [ 718342.639823495643213, 724621.775081524858251 ], [ 718236.011434263316914, 724711.718758752453141 ] ] ] } }
]
}
