{
"type": "FeatureCollection",
"name": "isochrone_walk_800m",
"crs": { "type": "name", "properties": { "name": "urn:ogc:def:crs:EPSG::2157" } },
"features": [
{ "type": "Feature", "properties": { }, "geometry": { "type": "MultiPolygon", "coordinates": [ [ [ [ 718685.648449346423149, 725035.087542761815712 ], [ 718530.180501715047285, 725160.000854455633089 ], [ 718637.191385158337653, 725630.716658027260564 ], [ 718642.630596093367785, 725646.81601569626946 ], [ 718690.301123291486874, 725710.455936777289025 ], [ 718745.055741948657669, 725752.21934692026116 ], [ 719250.749571708263829, 725859.001605272525921 ], [ 719295.40095649776049, 725854.341008285293356 ], [ 719607.208731876453385, 725665.34128461452201 ], [ 719632.181846121326089, 725615.670882585924119 ], [ 719758.478281838470139, 725329.249675222206861 ], [ 719804.264295791857876, 725195.717834601295181 ], [ 719735.390260353218764, 724877.644304878194816 ], [ 719699.994620654848404, 724810.494582007173449 ], [ 719603.219139496795833, 724678.583496983977966 ], [ 719402.171306386124343, 724643.676824199152179 ], [ 719263.67316323670093, 724669.300477016018704 ], [ 718685.648449346423149, 725035.087542761815712 ] ] ], [ [ [ 718929.685225055553019, 726502.178159122937359 ], [ 718922.967611913220026, 726505.572946150205098 ], [ 718913.913265388226137, 726513.295658414717764 ], [ 718724.158755804877728, 726678.703280703746714 ], [ 718698.835017401957884, 726892.78543789323885 ], [ 718742.360972227877937, 727224.18314191699028 ], [ 719084.690538270282559, 727467.791575897019356 ], [ 718891.777579390094616, 727787.00809664465487 ], [ 718830.884010551148094, 727994.780849311617203 ], [ 719283.323059337446466, 728598.866295475629158 ], [ 719287.602756631444208, 728599.763898085453548 ], [ 719292.466540216119029, 728600.776327677769586 ], [ 719296.981925115454942, 728599.720502574462444 ], [ 720036.199822306400165, 728135.992972770007327 ], [ 720075.430844440474175, 728108.459821557509713 ], [ 720173.226197025738657, 728033.308934824541211 ], [ 720209.857634155196138, 727974.829190183780156 ], [ 720109.980640076450072, 727616.242596571217291 ], [ 719958.231448103673756, 727487.978567509679124 ], [ 719757.940098359482363, 727349.354236947721802 ], [ 719765.537171990494244, 727304.719349611666985 ], [ 719886.330592924612574, 726586.028513411874883 ], [ 719527.393376958323643, 726475.428032325580716 ], [ 719338.418751715915278, 726448.026584996376187 ], [ 719176.714129109634086, 726442.288253099191934 ], [ 719062.976856383029372, 726453.583939429954626 ], [ 718929.685225055553019, 726502.178159122937359 ] ] ], [ [ [ 717609.099570229765959, 726919.447018804261461 ], [ 717080.031112451339141, 727089.502099334611557 ], [ 716987.788288809126243, 727151.314498285762966 ], [ 716951.086970585281961, 727371.190823129494675 ], [ 717000.465392655343749, 727735.257503593456931 ], [ 716909.640926283900626, 727762.779224735684693 ], [ 716570.190968781011179, 727906.863089505466633 ], [ 716352.323338708840311, 728001.382763439672999 ], [ 716231.95794773590751, 728625.183470582822338 ], [ 716244.134874244453385, 728641.388772724661976 ], [ 716769.450877885799855, 729029.79052555153612 ], [ 716885.476106987334788, 729068.071414553094655 ], [ 716948.42358019866515, 729058.684882340021431 ], [ 717387.026432943879627, 728639.474798651994206 ], [ 717595.904688034439459, 728344.229487162549049 ], [ 717611.431235417141579, 728247.860691134119406 ], [ 717566.317001824150793, 728111.910034306230955 ], [ 717708.454987105797045, 728082.268505005515181 ], [ 718217.626211581402458, 727324.364032838027924 ], [ 718232.530107539263554, 727288.096811890252866 ], [ 718230.959441251703538, 727232.551246587303467 ], [ 717933.955749726737849, 726853.500410642358474 ], [ 717774.223179920692928, 726880.620717016048729 ], [ 717609.099570229765959, 726919.447018804261461 ] ] ] ] } }
]
}
