{
"type": "FeatureCollection",
"name": "isochrone_walk_400m",
"crs": { "type": "name", "properties": { "name": "urn:ogc:def:crs:EPSG::2157" } },
"features": [
{ "type": "Feature", "properties": { }, "geometry": { "type": "MultiPolygon", "coordinates": [ [ [ [ 719090.506868089316413, 725025.18790382950101 ], [ 718971.384657032322139, 725105.975300372228958 ], [ 718898.680234188446775, 725207.215436325175688 ], [ 719012.438942961161956, 725442.756679620128125 ], [ 719016.257503639906645, 725448.874697969877161 ], [ 719027.775077140890062, 725465.549307650304399 ], [ 719047.679660613648593, 725494.356304863933474 ], [ 719372.038460372015834, 725458.737984447041526 ], [ 719378.362037589307874, 725455.957322957925498 ], [ 719384.214803417795338, 725453.320736018707976 ], [ 719438.311030684737489, 725310.25290998746641 ], [ 719408.145003344980069, 725071.572342939558439 ], [ 719351.133741889731027, 724976.90990033140406 ], [ 719265.399583693128079, 724989.949557079584338 ], [ 719090.506868089316413, 725025.18790382950101 ] ] ], [ [ [ 719095.868921711458825, 726816.436435462441295 ], [ 719037.677458762307651, 726960.696528036845848 ], [ 719016.792331417906098, 727022.706421270151623 ], [ 719043.995696582715027, 727091.583991363761015 ], [ 719413.764024456031621, 727389.303917176788673 ], [ 719422.776865309337154, 727389.863788474467583 ], [ 719583.728410271578468, 726826.939183210721239 ], [ 719483.22537002817262, 726766.840487471432425 ], [ 719278.732650113641284, 726699.80958968703635 ], [ 719141.561511291190982, 726747.343231130973436 ], [ 719095.868921711458825, 726816.436435462441295 ] ] ], [ [ [ 717444.423476182273589, 727215.003466235357337 ], [ 717284.556822903687134, 727324.104207573225722 ], [ 717251.246396570000798, 727566.961595379048958 ], [ 717298.837094597169198, 727667.044536918750964 ], [ 717349.878195279743522, 727732.85839030938223 ], [ 717369.411851136595942, 727746.097342999069951 ], [ 717507.331847718567587, 727816.32520404830575 ], [ 717525.238992017111741, 727813.260217147530057 ], [ 717874.853280872455798, 727372.914538855315186 ], [ 717798.141610022052191, 727200.523862349917181 ], [ 717459.7306072084466, 727213.299017306417227 ], [ 717444.423476182273589, 727215.003466235357337 ] ] ], [ [ [ 719213.647710577235557, 728027.722791892709211 ], [ 719372.829590906039812, 728192.141126671223901 ], [ 719454.080088843591511, 728248.972747287829407 ], [ 719650.927622565883212, 728134.805305140675046 ], [ 719732.295485992450267, 728046.230137628503144 ], [ 719791.777822054456919, 727956.103920540772378 ], [ 719780.827092221705243, 727829.161366025451571 ], [ 719719.67616132250987, 727744.864229551632889 ], [ 719420.71248424355872, 727536.639914241502993 ], [ 719344.324627172434703, 727666.558053044951521 ], [ 719196.050830600433983, 727923.448782416991889 ], [ 719213.647710577235557, 728027.722791892709211 ] ] ], [ [ [ 716726.801967059494928, 728149.643121556611732 ], [ 716647.533742526196875, 728415.345704913372174 ], [ 716618.172389881918207, 728518.035296126850881 ], [ 716629.898343792185187, 728533.551503130351193 ], [ 716913.284937645192258, 728738.878715803381056 ], [ 717123.339470678241923, 728566.9008998995414 ], [ 717173.639913349878043, 728476.507185721537098 ], [ 717290.064264950342476, 728234.65980548702646 ], [ 717107.932673529256135, 728010.970338726881891 ], [ 717105.751347892335616, 728009.61422301188577 ], [ 717104.046566755278036, 728008.681722053559497 ], [ 717025.188496312010102, 728024.867357772076502 ], [ 716942.628984828013927, 728055.992133793770336 ], [ 716726.801967059494928, 728149.643121556611732 ] ] ] ] } }
]
}
