{
"type": "FeatureCollection",
"name": "isochrone_cycle_3000m",
"crs": { "type": "name", "properties": { "name": "urn:ogc:def:crs:EPSG::2157" } },
"features": [
{ "type": "Feature", "properties": { }, "geometry": { "type": "Polygon", "coordinates": [ [ [ 716771.987817040644586, 725345.795902759535238 ], [ 716359.788683053222485, 725520.873877637786791 ], [ 715909.641673325328156, 725724.872264861944132 ], [ 715905.129698918084614, 725727.089203591458499 ], [ 715883.960085289203562, 725740.011178993969224 ], [ 715801.080208568484522, 725808.642418243689463 ], [ 715506.18101131520234, 726157.785802356316708 ], [ 715433.879023573128507, 726274.837331564747728 ], [ 715241.984987478004768, 726699.54084343498107 ], [ 715168.699132225010544, 726877.480076771811582 ], [ 714568.610792956198566, 727425.90933286503423 ], [ 714487.102501499350183, 727656.556628031423315 ], [ 714354.18494561908301, 728395.645739456056617 ], [ 714333.484004952479154, 728736.171667368500493 ], [ 714333.494315561139956, 728769.356923399493098 ], [ 714510.766122321481816, 729579.13067593309097 ], [ 714514.243551181396469, 729591.47087011160329 ], [ 715041.327205533976667, 730175.718545164912939 ], [ 715107.634822562104091, 730219.022944707656279 ], [ 716324.967612798442133, 730904.535423364141025 ], [ 716781.136915718088858, 731119.341649879934266 ], [ 716965.026607134495862, 731171.159647395368665 ], [ 717046.609111619996838, 731189.007059126161039 ], [ 718308.357905871118419, 730202.901973530184478 ], [ 718394.665831966558471, 730269.162494319374673 ], [ 718581.367110091028735, 730346.483290024800226 ], [ 718699.60191542073153, 730377.796061157947406 ], [ 718831.598195595201105, 730397.844057735055685 ], [ 719392.326108761364594, 730468.418399150948972 ], [ 720256.75119254027959, 730335.679502547252923 ], [ 721472.065876345383003, 729507.383845354663208 ], [ 722117.091907369671389, 728409.482571065425873 ], [ 722144.173907197429799, 728271.372396386926994 ], [ 722209.588689935160801, 727756.707893545390107 ], [ 721736.529091572621837, 726395.946072379359975 ], [ 721499.56072408054024, 725495.393154179560952 ], [ 721423.828815826796927, 725381.596154218772426 ], [ 721675.230892966850661, 724199.255552510963753 ], [ 721603.847191944834776, 724057.040119534009136 ], [ 721468.009101190487854, 723793.641082238638774 ], [ 720189.914499025791883, 723003.883823782554828 ], [ 718972.729636909789406, 722895.652239331509918 ], [ 718677.256492350250483, 722876.838966433191672 ], [ 717298.71436484658625, 724160.141386598232202 ], [ 716771.987817040644586, 725345.795902759535238 ] ] ] } }
]
}
